STARLINK-2481           
1 48138U 21027AY  26068.59406591  .00015170  00000+0  52293-3 0  9994
2 48138  53.1608 168.2401 0001377  84.9717 275.1441 15.30220377272460
YAM-7                   
1 60504U 24149AN  26068.71799904  .00009009  00000+0  30984-3 0  9997
2 60504  97.3828 149.4631 0001973 296.5121  63.5918 15.30304554 86835
